{
  "type": "FeatureCollection",
  "features": [
    {
      "type": "Feature",
      "properties": {
        "norad_id": 58701,
        "name": "TIANMU-1 16",
        "group": "weather",
        "lat": 67.90327590858398,
        "lon": 147.25250525291392,
        "alt_km": 487.85961156122994,
        "timestamp": "2025-12-11T05:00:25.955157+00:00",
        "meta_object_name": "TIANMU-1 16",
        "meta_object_id": "2024-004B",
        "meta_epoch": "2025-12-10T22:24:12.186432",
        "meta_mean_motion": 15.24392406,
        "meta_eccentricity": 0.00045825,
        "meta_inclination": 97.4571,
        "meta_ra_of_asc_node": 165.8004,
        "meta_arg_of_pericenter": 304.1427,
        "meta_mean_anomaly": 55.9376,
        "meta_ephemeris_type": 0,
        "meta_classification_type": "U",
        "meta_norad_cat_id": 58701,
        "meta_element_set_no": 999,
        "meta_rev_at_epoch": 10707,
        "meta_bstar": 0.00043821641,
        "meta_mean_motion_dot": 0.00010675,
        "meta_mean_motion_ddot": 0,
        "tle_line1": "1 58701U 24004B   25344.93347438  .00010675  00000+0  43822-3 0  9990",
        "tle_line2": "2 58701  97.4571 165.8004 0004582 304.1427  55.9376 15.24392406107076"
      },
      "geometry": {
        "type": "Point",
        "coordinates": [
          147.25250525291392,
          67.90327590858398
        ]
      }
    },
    {
      "type": "Feature",
      "properties": {
        "norad_id": 58702,
        "name": "TIANMU-1 17",
        "group": "weather",
        "lat": 26.28172927913345,
        "lon": -9.806131124103075,
        "alt_km": 493.93883089174415,
        "timestamp": "2025-12-11T05:00:25.955167+00:00",
        "meta_object_name": "TIANMU-1 17",
        "meta_object_id": "2024-004C",
        "meta_epoch": "2025-12-10T23:36:37.080864",
        "meta_mean_motion": 15.24438842,
        "meta_eccentricity": 0.00037749,
        "meta_inclination": 97.4605,
        "meta_ra_of_asc_node": 166.2596,
        "meta_arg_of_pericenter": 307.9556,
        "meta_mean_anomaly": 52.134,
        "meta_ephemeris_type": 0,
        "meta_classification_type": "U",
        "meta_norad_cat_id": 58702,
        "meta_element_set_no": 999,
        "meta_rev_at_epoch": 10707,
        "meta_bstar": 0.00043781681,
        "meta_mean_motion_dot": 0.00010679,
        "meta_mean_motion_ddot": 0,
        "tle_line1": "1 58702U 24004C   25344.98376251  .00010679  00000+0  43782-3 0  9990",
        "tle_line2": "2 58702  97.4605 166.2596 0003774 307.9556  52.1340 15.24438842107077"
      },
      "geometry": {
        "type": "Point",
        "coordinates": [
          -9.806131124103075,
          26.28172927913345
        ]
      }
    },
    {
      "type": "Feature",
      "properties": {
        "norad_id": 58703,
        "name": "TIANMU-1 18",
        "group": "weather",
        "lat": -63.981120779344245,
        "lon": -28.897381711375655,
        "alt_km": 498.76024959721326,
        "timestamp": "2025-12-11T05:00:25.955177+00:00",
        "meta_object_name": "TIANMU-1 18",
        "meta_object_id": "2024-004D",
        "meta_epoch": "2025-12-10T23:12:34.168896",
        "meta_mean_motion": 15.24426696,
        "meta_eccentricity": 0.0003116,
        "meta_inclination": 97.4622,
        "meta_ra_of_asc_node": 166.438,
        "meta_arg_of_pericenter": 308.9141,
        "meta_mean_anomaly": 51.1818,
        "meta_ephemeris_type": 0,
        "meta_classification_type": "U",
        "meta_norad_cat_id": 58703,
        "meta_element_set_no": 999,
        "meta_rev_at_epoch": 10707,
        "meta_bstar": 0.00040309893,
        "meta_mean_motion_dot": 9.822e-05,
        "meta_mean_motion_ddot": 0,
        "tle_line1": "1 58703U 24004D   25344.96706214  .00009822  00000+0  40310-3 0  9997",
        "tle_line2": "2 58703  97.4622 166.4380 0003116 308.9141  51.1818 15.24426696107074"
      },
      "geometry": {
        "type": "Point",
        "coordinates": [
          -28.897381711375655,
          -63.981120779344245
        ]
      }
    },
    {
      "type": "Feature",
      "properties": {
        "norad_id": 58990,
        "name": "INSAT-3DS",
        "group": "weather",
        "lat": 0.0016337148785846892,
        "lon": -122.65125539218077,
        "alt_km": 35779.539704513154,
        "timestamp": "2025-12-11T05:00:25.955189+00:00",
        "meta_object_name": "INSAT-3DS",
        "meta_object_id": "2024-033A",
        "meta_epoch": "2025-12-10T20:46:49.479744",
        "meta_mean_motion": 1.002745,
        "meta_eccentricity": 0.00015251,
        "meta_inclination": 0.0359,
        "meta_ra_of_asc_node": 129.2475,
        "meta_arg_of_pericenter": 134.2355,
        "meta_mean_anomaly": 210.134,
        "meta_ephemeris_type": 0,
        "meta_classification_type": "U",
        "meta_norad_cat_id": 58990,
        "meta_element_set_no": 999,
        "meta_rev_at_epoch": 4518,
        "meta_bstar": 0,
        "meta_mean_motion_dot": -1.51e-06,
        "meta_mean_motion_ddot": 0,
        "tle_line1": "1 58990U 24033A   25344.86585046 -.00000151  00000+0  00000+0 0  9999",
        "tle_line2": "2 58990   0.0359 129.2475 0001525 134.2355 210.1340  1.00274500 45184"
      },
      "geometry": {
        "type": "Point",
        "coordinates": [
          -122.65125539218077,
          0.0016337148785846892
        ]
      }
    },
    {
      "type": "Feature",
      "properties": {
        "norad_id": 59051,
        "name": "METEOR-M2 4",
        "group": "weather",
        "lat": -77.6639540397956,
        "lon": 77.85690789895406,
        "alt_km": 825.5975755368427,
        "timestamp": "2025-12-11T05:00:25.955200+00:00",
        "meta_object_name": "METEOR-M2 4",
        "meta_object_id": "2024-039A",
        "meta_epoch": "2025-12-10T22:43:04.266624",
        "meta_mean_motion": 14.22400886,
        "meta_eccentricity": 0.00071327,
        "meta_inclination": 98.6764,
        "meta_ra_of_asc_node": 301.8836,
        "meta_arg_of_pericenter": 3.6548,
        "meta_mean_anomaly": 356.4681,
        "meta_ephemeris_type": 0,
        "meta_classification_type": "U",
        "meta_norad_cat_id": 59051,
        "meta_element_set_no": 999,
        "meta_rev_at_epoch": 9250,
        "meta_bstar": 6.1688795e-05,
        "meta_mean_motion_dot": 9.4e-07,
        "meta_mean_motion_ddot": 0,
        "tle_line1": "1 59051U 24039A   25344.94657716  .00000094  00000+0  61689-4 0  9997",
        "tle_line2": "2 59051  98.6764 301.8836 0007132   3.6548 356.4681 14.22400886 92504"
      },
      "geometry": {
        "type": "Point",
        "coordinates": [
          77.85690789895406,
          -77.6639540397956
        ]
      }
    },
    {
      "type": "Feature",
      "properties": {
        "norad_id": 60133,
        "name": "GOES 19",
        "group": "weather",
        "lat": -0.0003513944245133971,
        "lon": 80.10585775591399,
        "alt_km": 35790.02730280297,
        "timestamp": "2025-12-11T05:00:25.955211+00:00",
        "meta_object_name": "GOES 19",
        "meta_object_id": "2024-119A",
        "meta_epoch": "2025-12-10T20:02:01.271616",
        "meta_mean_motion": 1.00271191,
        "meta_eccentricity": 0.00013339,
        "meta_inclination": 0.0087,
        "meta_ra_of_asc_node": 100.8993,
        "meta_arg_of_pericenter": 207.6379,
        "meta_mean_anomaly": 356.5905,
        "meta_ephemeris_type": 0,
        "meta_classification_type": "U",
        "meta_norad_cat_id": 60133,
        "meta_element_set_no": 999,
        "meta_rev_at_epoch": 507,
        "meta_bstar": 0,
        "meta_mean_motion_dot": -2.43e-06,
        "meta_mean_motion_ddot": 0,
        "tle_line1": "1 60133U 24119A   25344.83473694 -.00000243  00000+0  00000+0 0  9990",
        "tle_line2": "2 60133   0.0087 100.8993 0001333 207.6379 356.5905  1.00271191  5071"
      },
      "geometry": {
        "type": "Point",
        "coordinates": [
          80.10585775591399,
          -0.0003513944245133971
        ]
      }
    },
    {
      "type": "Feature",
      "properties": {
        "norad_id": 65815,
        "name": "FENGYUN 3H",
        "group": "weather",
        "lat": 25.662544292598035,
        "lon": 109.03056314359314,
        "alt_km": 824.6062163532915,
        "timestamp": "2025-12-11T05:00:25.955222+00:00",
        "meta_object_name": "FENGYUN 3H",
        "meta_object_id": "2025-219A",
        "meta_epoch": "2025-12-10T21:31:11.673696",
        "meta_mean_motion": 14.1990391,
        "meta_eccentricity": 6.038e-05,
        "meta_inclination": 98.6582,
        "meta_ra_of_asc_node": 284.5271,
        "meta_arg_of_pericenter": 88.5652,
        "meta_mean_anomaly": 271.5594,
        "meta_ephemeris_type": 0,
        "meta_classification_type": "U",
        "meta_norad_cat_id": 65815,
        "meta_element_set_no": 999,
        "meta_rev_at_epoch": 1066,
        "meta_bstar": 0.00010561816,
        "meta_mean_motion_dot": 1.81e-06,
        "meta_mean_motion_ddot": 0,
        "tle_line1": "1 65815U 25219A   25344.89666289  .00000181  00000+0  10562-3 0  9992",
        "tle_line2": "2 65815  98.6582 284.5271 0000603  88.5652 271.5594 14.19903910 10660"
      },
      "geometry": {
        "type": "Point",
        "coordinates": [
          109.03056314359314,
          25.662544292598035
        ]
      }
    }
  ]
}